STARLINK-1465
1 45731U 20038B   26090.35049292  .00039562  00000+0  62309-3 0  9991
2 45731  53.0492 118.9581 0006148   9.5923 350.5203 15.53189560319740
